NORAD_CAT_ID,OBJECT_NAME,OBJECT_TYPE,EPOCH,MEAN_MOTION,ECCENTRICITY,INCLINATION,RA_OF_ASC_NODE,ARG_OF_PERICENTER,MEAN_ANOMALY,BSTAR,MEAN_MOTION_DOT,MEAN_MOTION_DDOT,TLE_LINE0,TLE_LINE1,TLE_LINE2,SEMIMAJOR_AXIS,PERIOD,APOGEE,PERIGEE,DECAYED
53438.0,STARLINK-4526,PAYLOAD,2024-02-24 09:09:53,15.08830542,0.0001542,53.2172,205.0961,84.3854,275.7314,-4.0255e-05,-9.28e-06,0.0,0 STARLINK-4526,1 53438U 22097BC  24055.38186799 -.00000928  00000-0 -40255-4 0  9991,2 53438  53.2172 205.0961 0001542  84.3854 275.7314 15.08830542 85943,6917.909,95.438,540.841,538.708,0.0
53438.0,STARLINK-4526,PAYLOAD,2024-02-24 13:56:02,15.08832472,0.0001407,53.2173,204.2037,88.8836,271.2317,-2.3549e-05,-6.63e-06,0.0,0 STARLINK-4526,1 53438U 22097BC  24055.58058720 -.00000663  00000-0 -23549-4 0  9998,2 53438  53.2173 204.2037 0001407  88.8836 271.2317 15.08832472 86464,6917.903,95.438,540.742,538.795,0.0
53438.0,STARLINK-4526,PAYLOAD,2024-02-24 17:06:48,15.08832813,0.0001324,53.217,203.6097,98.2991,261.8151,-1.7727e-05,-5.7e-06,0.0,0 STARLINK-4526,1 53438U 22097BC  24055.71306671 -.00000570  00000-0 -17727-4 0  9992,2 53438  53.2170 203.6097 0001324  98.2991 261.8151 15.08832813 86487,6917.902,95.438,540.683,538.851,0.0
53438.0,STARLINK-4526,PAYLOAD,2024-02-25 13:46:48,15.08847047,0.0001311,53.2176,199.7423,88.0838,272.0305,6.9699e-05,8.22e-06,0.0,0 STARLINK-4526,1 53438U 22097BC  24056.57417632  .00000822  00000-0  69699-4 0  9990,2 53438  53.2176 199.7423 0001311  88.0838 272.0305 15.08847047 86619,6917.859,95.437,540.631,538.817,0.0
53438.0,STARLINK-4526,PAYLOAD,2024-02-25 18:32:57,15.08856523,0.0001422,53.2163,198.8498,90.0763,270.0392,0.00016074,2.272e-05,0.0,0 STARLINK-4526,1 53438U 22097BC  24056.77288769  .00002272  00000-0  16074-3 0  9998,2 53438  53.2163 198.8498 0001422  90.0763 270.0392 15.08856523 86152,6917.83,95.437,540.679,538.711,0.0
53438.0,STARLINK-4526,PAYLOAD,2024-02-26 13:37:37,15.08829419,0.0001488,53.2163,195.2804,85.7084,274.4078,1.0109e-05,-1.27e-06,0.0,0 STARLINK-4526,1 53438U 22097BC  24057.56779368 -.00000127  00000-0  10109-4 0  9998,2 53438  53.2163 195.2804 0001488  85.7084 274.4078 15.08829419 86763,6917.913,95.438,540.807,538.748,0.0
53438.0,STARLINK-4526,PAYLOAD,2024-02-26 18:23:46,15.08836811,0.0001487,53.2168,194.3866,82.3896,277.7265,2.4073e-05,9.5e-07,0.0,0 STARLINK-4526,1 53438U 22097BC  24057.76650651  .00000095  00000-0  24073-4 0  9991,2 53438  53.2168 194.3866 0001487  82.3896 277.7265 15.08836811 86307,6917.89,95.438,540.784,538.726,0.0
53438.0,STARLINK-4526,PAYLOAD,2024-02-27 15:03:46,15.08845545,0.0001454,53.2157,190.5238,98.2267,261.8891,5.8515e-05,6.44e-06,0.0,0 STARLINK-4526,1 53438U 22097BC  24058.62762400  .00000644  00000-0  58515-4 0  9991,2 53438  53.2157 190.5238 0001454  98.2267 261.8891 15.08845545 86929,6917.863,95.437,540.734,538.723,0.0
53438.0,STARLINK-4526,PAYLOAD,2024-02-27 18:14:32,15.08853548,0.0001532,53.2163,189.9267,96.8571,263.2596,0.00018807,2.707e-05,0.0,0 STARLINK-4526,1 53438U 22097BC  24058.76010023  .00002707  00000-0  18807-3 0  9994,2 53438  53.2163 189.9267 0001532  96.8571 263.2596 15.08853548 86457,6917.839,95.437,540.764,538.644,0.0
53438.0,STARLINK-4526,PAYLOAD,2024-02-28 02:11:28,15.08843886,9.7e-05,53.217,188.4406,99.5447,260.5655,4.6696e-05,4.56e-06,0.0,0 STARLINK-4526,1 53438U 22097BC  24059.09130094  .00000456  00000-0  46696-4 0  9999,2 53438  53.2170 188.4406 0000970  99.5447 260.5655 15.08843886 86507,6917.869,95.437,540.405,539.062,0.0
53438.0,STARLINK-4526,PAYLOAD,2024-02-28 14:54:33,15.08843547,0.0001483,53.2166,186.0609,104.7209,255.3948,0.00019289,2.784e-05,0.0,0 STARLINK-4526,1 53438U 22097BC  24059.62122645  .00002784  00000-0  19289-3 0  9994,2 53438  53.2166 186.0609 0001483 104.7209 255.3948 15.08843547 87070,6917.87,95.437,540.76,538.709,0.0
53438.0,STARLINK-4526,PAYLOAD,2024-02-28 18:05:20,15.08848302,0.0001586,53.2172,185.4652,99.9572,260.1599,0.00025137,3.716e-05,0.0,0 STARLINK-4526,1 53438U 22097BC  24059.75370442  .00003716  00000-0  25137-3 0  9993,2 53438  53.2172 185.4652 0001586  99.9572 260.1599 15.08848302 87092,6917.855,95.437,540.817,538.623,0.0
53438.0,STARLINK-4526,PAYLOAD,2024-02-29 13:09:57,15.08847872,0.0001488,53.2166,181.8981,99.8706,260.2455,0.00011841,1.597e-05,0.0,0 STARLINK-4526,1 53438U 22097BC  24060.54858347  .00001597  00000-0  11841-3 0  9999,2 53438  53.2166 181.8981 0001488  99.8706 260.2455 15.08847872 86721,6917.856,95.437,540.751,538.692,0.0
53438.0,STARLINK-4526,PAYLOAD,2024-02-29 14:45:20,15.08849496,0.0001386,53.216,181.6008,88.1982,271.9169,0.00016924,2.407e-05,0.0,0 STARLINK-4526,1 53438U 22097BC  24060.61482339  .00002407  00000-0  16924-3 0  9999,2 53438  53.2160 181.6008 0001386  88.1982 271.9169 15.08849496 87228,6917.851,95.437,540.675,538.758,0.0
53438.0,STARLINK-4526,PAYLOAD,2024-03-01 14:36:07,15.08851439,0.0001445,53.2162,177.1426,89.9646,270.1512,0.00027003,4.013e-05,0.0,0 STARLINK-4526,1 53438U 22097BC  24061.60842209  .00004013  00000-0  27003-3 0  9990,2 53438  53.2162 177.1426 0001445  89.9646 270.1512 15.08851439 87375,6917.845,95.437,540.71,538.711,0.0
53438.0,STARLINK-4526,PAYLOAD,2024-03-02 11:16:08,15.08844003,0.0001509,53.217,173.2811,97.0005,263.1159,8.8652e-05,1.123e-05,0.0,0 STARLINK-4526,1 53438U 22097BC  24062.46954298  .00001123  00000-0  88652-4 0  9994,2 53438  53.2170 173.2811 0001509  97.0005 263.1159 15.08844003 87018,6917.868,95.437,540.777,538.689,0.0
53438.0,STARLINK-4526,PAYLOAD,2024-03-02 14:26:54,15.08847423,0.0001538,53.2171,172.6844,85.1372,274.9795,0.00013713,1.896e-05,0.0,0 STARLINK-4526,1 53438U 22097BC  24062.60202164  .00001896  00000-0  13713-3 0  9990,2 53438  53.2171 172.6844 0001538  85.1372 274.9795 15.08847423 87526,6917.858,95.437,540.787,538.659,0.0
53438.0,STARLINK-4526,PAYLOAD,2024-03-03 11:06:55,15.08838619,0.0001614,53.2174,168.8194,94.0649,266.0528,-1.7393e-05,-5.65e-06,0.0,0 STARLINK-4526,1 53438U 22097BC  24063.46314635 -.00000565  00000-0 -17393-4 0  9995,2 53438  53.2174 168.8194 0001614  94.0649 266.0528 15.08838619 87168,6917.885,95.438,540.866,538.633,0.0
53438.0,STARLINK-4526,PAYLOAD,2024-03-03 14:17:42,15.08836735,0.0001672,53.2176,168.2234,79.047,281.071,-5.3977e-05,-1.147e-05,0.0,0 STARLINK-4526,1 53438U 22097BC  24063.59562792 -.00001147  00000-0 -53977-4 0  9993,2 53438  53.2176 168.2234 0001672  79.0470 281.0710 15.08836735 87671,6917.89,95.438,540.912,538.599,0.0
53438.0,STARLINK-4526,PAYLOAD,2024-03-03 15:53:05,15.08840212,0.0001466,53.2169,167.9259,100.9779,259.1378,-1.105e-05,-4.64e-06,0.0,0 STARLINK-4526,1 53438U 22097BC  24063.66186387 -.00000464  00000-0 -11050-4 0  9990,2 53438  53.2169 167.9259 0001466 100.9779 259.1378 15.08840212 87685,6917.88,95.438,540.759,538.731,0.0
53438.0,STARLINK-4526,PAYLOAD,2024-03-04 06:11:33,15.08824908,0.0001722,53.2175,165.2507,104.2264,255.892,0.00038095,5.778e-05,0.0,0 STARLINK-4526,1 53438U 22097BC  24064.25803234  .00005778  00000-0  38095-3 0  9991,2 53438  53.2175 165.2507 0001722 104.2264 255.8920 15.08824908 87286,6917.927,95.439,540.983,538.6,0.0
53438.0,STARLINK-4526,PAYLOAD,2024-03-04 12:33:05,15.08840952,0.0001645,53.2168,164.0626,86.9702,273.1478,1.6185e-05,-3e-07,0.0,0 STARLINK-4526,1 53438U 22097BC  24064.52298557 -.00000030  00000-0  16185-4 0  9991,2 53438  53.2168 164.0626 0001645  86.9702 273.1478 15.08840952 87327,6917.877,95.437,540.88,538.604,0.0
53438.0,STARLINK-4526,PAYLOAD,2024-03-04 14:08:29,15.08843962,0.0001869,53.2173,163.7659,66.0443,294.0744,8.0401e-05,9.92e-06,0.0,0 STARLINK-4526,1 53438U 22097BC  24064.58922582  .00000992  00000-0  80401-4 0  9997,2 53438  53.2173 163.7659 0001869  66.0443 294.0744 15.08843962 87821,6917.868,95.437,541.026,538.44,0.0
53438.0,STARLINK-4526,PAYLOAD,2024-03-05 13:59:16,15.08843173,0.0001627,53.2166,159.303,72.3252,287.7917,0.00016059,2.269e-05,0.0,0 STARLINK-4526,1 53438U 22097BC  24065.58282705  .00002269  00000-0  16059-3 0  9990,2 53438  53.2166 159.3030 0001627  72.3252 287.7917 15.08843173 87978,6917.871,95.437,540.861,538.61,0.0
53438.0,STARLINK-4526,PAYLOAD,2024-03-06 10:39:17,15.08837541,0.0001641,53.2165,155.4377,74.2064,285.9109,-4.4749e-06,-3.59e-06,0.0,0 STARLINK-4526,1 53438U 22097BC  24066.44395168 -.00000359  00000-0 -44749-5 0  9993,2 53438  53.2165 155.4377 0001641  74.2064 285.9109 15.08837541 87612,6917.888,95.438,540.888,538.618,0.0
53438.0,STARLINK-4526,PAYLOAD,2024-03-06 12:14:40,15.08839893,0.0001596,53.2174,155.1403,75.862,284.255,2.0059e-05,3.1e-07,0.0,0 STARLINK-4526,1 53438U 22097BC  24066.51019240  .00000031  00000-0  20059-4 0  9997,2 53438  53.2174 155.1403 0001596  75.8620 284.2550 15.08839893 88113,6917.881,95.438,540.85,538.642,0.0
53438.0,STARLINK-4526,PAYLOAD,2024-03-07 12:05:27,15.08846769,0.0001184,53.2173,150.6751,96.9645,263.1482,3.0427e-05,1.97e-06,0.0,0 STARLINK-4526,1 53438U 22097BC  24067.50378603  .00000197  00000-0  30427-4 0  9991,2 53438  53.2173 150.6751 0001184  96.9645 263.1482 15.08846769 88268,6917.86,95.437,540.544,538.906,0.0
53438.0,STARLINK-4526,PAYLOAD,2024-03-08 05:34:42,15.08838546,0.000133,53.2166,147.405,94.058,266.0564,7.0082e-05,8.28e-06,0.0,0 STARLINK-4526,1 53438U 22097BC  24068.23243216  .00000828  00000-0  70082-4 0  9995,2 53438  53.2166 147.4050 0001330  94.0580 266.0564 15.08838546 87880,6917.885,95.438,540.67,538.83,0.0
53438.0,STARLINK-4526,PAYLOAD,2024-03-08 11:56:14,15.0884582,0.0001356,53.217,146.2159,93.077,267.0377,0.00011256,1.504e-05,0.0,0 STARLINK-4526,1 53438U 22097BC  24068.49738639  .00001504  00000-0  11256-3 0  9990,2 53438  53.2170 146.2159 0001356  93.0770 267.0377 15.08845820 87921,6917.863,95.437,540.666,538.79,0.0
53438.0,STARLINK-4526,PAYLOAD,2024-03-09 05:25:29,15.08832349,0.0001458,53.2168,142.945,91.4228,268.6932,3.0023e-05,1.9e-06,0.0,0 STARLINK-4526,1 53438U 22097BC  24069.22604017  .00000190  00000-0  30023-4 0  9998,2 53438  53.2168 142.9450 0001458  91.4228 268.6932 15.08832349 88037,6917.904,95.438,540.777,538.76,0.0
